# From MPC 92275
P/2015 A3 (PANSTARRS),e,172.5294,277.1753,249.2410,7.807768,0.0451766,0.85137451,96.4039,12/22.0/2020,2000,g 20.0,4.0
# From MPC 99270
P/2015 B1 (PANSTARRS),e,18.0305,353.0178,188.8371,9.499608,0.0336624,0.36844932,64.7834,12/22.0/2020,2000,g  8.5,4.0
# From MPC108592
C/2015 B2 (PANSTARRS),e,104.9938,341.8516,284.7182,26202,0.0000002,0.99987136,0.0000,05/05.5169/2016,2000,g  9.5,4.0
# From MPC109141
P/2015 B4 (Lemmon-PANSTARRS),e,1.7599,266.0248,227.4782,8.532836,0.0395425,0.56029504,84.9159,12/22.0/2020,2000,g 11.0,4.0
# From MPC101096
P/2015 C1 (TOTAS-Gibbs),e,13.8908,348.8216,178.3309,6.585412,0.0583216,0.56026511,120.4528,12/22.0/2020,2000,g 12.5,4.0
# From MPC119995
C/2015 D3 (PANSTARRS),h,05/02.5797/2016,128.5484,157.0580,2.9628,1.003673,8.144814,2000,5.5,4.0
# From MPC109141
P/2015 D5 (Kowalski),e,20.4993,74.0599,39.9016,8.971965,0.0366752,0.48881430,90.1215,12/22.0/2020,2000,g  9.0,4.0
# From MPC 96866
P/2015 D6 (Lemmon-PANSTARRS),e,20.2025,46.0343,125.1925,7.145994,0.0515953,0.36200038,103.0895,12/22.0/2020,2000,g 10.5,4.0
# From MPC112390
C/2015 ER61 (PANSTARRS),e,6.3389,235.1607,68.3015,491.3459,0.0000905,0.99787733,0.0000,05/10.4564/2017,2000,g 11.0,2.0
# From MPEC 2018-BF5
C/2015 E61-B (PANSTARRS),e,6.3405,235.1958,68.3907,1373,0.0000194,0.99923901,0.0000,05/10.4340/2017,2000,g 13.5,2.0
# From MPC109142
P/2015 F1 (PANSTARRS),e,2.8025,40.3925,187.4565,3.523031,0.1490491,0.27807235,313.8651,12/22.0/2020,2000,g 12.5,4.0
# From MPC117068
C/2015 H2 (PANSTARRS),h,09/14.2506/2016,33.6556,350.6793,288.0932,1.005654,4.977766,2000,7.5,4.0
# From MPC100280
P/2015 HG16 (PANSTARRS),e,18.8035,58.8808,47.3802,4.748554,0.0952494,0.35106823,226.0630,12/22.0/2020,2000,g 12.5,4.0
# From MPC 95733
P/2015 J3 (NEOWISE),e,8.1309,111.3511,129.4512,3.348210,0.1608737,0.55437558,340.5102,12/22.0/2020,2000,g 16.5,4.0
# From MPC 95213
P/2015 K5 (PANSTARRS),e,39.9450,134.1767,106.3321,6.720343,0.0565740,0.55355680,114.6378,12/22.0/2020,2000,g 13.5,4.0
# From MPC107684
P/2015 M2 (PANSTARRS),e,3.9729,86.5829,225.4218,7.228262,0.0507170,0.18106592,97.9268,12/22.0/2020,2000,g  8.5,4.0
# From MPC112390
C/2015 O1 (PANSTARRS),h,02/19.5900/2018,127.2257,299.8517,89.6315,1.001080,3.729442,2000,6.5,4.0
# From MPC 99819
P/2015 P4 (PANSTARRS),e,8.7177,104.7615,280.5707,6.049825,0.0662354,0.58457768,119.1082,12/22.0/2020,2000,g 14.0,4.0
# From MPC102952
P/2015 PD229 (Cameron-ISON),e,2.0262,342.6341,352.4334,7.181946,0.0512084,0.32814547,100.1317,12/22.0/2020,2000,g 11.5,2.0
# From MPC 99819
P/2015 Q1 (Scotti),e,22.3836,202.9286,199.8433,3.473426,0.1522534,0.47830798,296.2630,12/22.0/2020,2000,g 14.0,4.0
# From MPC 96867
P/2015 Q2 (Pimentel),e,146.4914,228.4126,244.4764,7.347368,0.0494887,0.75088145,95.7166,12/22.0/2020,2000,g 15.5,4.0
# From MPC 98562
P/2015 R1 (PANSTARRS),e,22.6782,48.4363,300.4211,5.880504,0.0691166,0.63405719,138.5155,12/22.0/2020,2000,g 14.0,4.0
# From MPC 95734
P/2015 R2 (PANSTARRS),e,15.4789,168.6009,149.7498,4.488535,0.1036447,0.45282685,209.3437,12/22.0/2020,2000,g 14.5,4.0
# From MPC117068
C/2015 T2 (PANSTARRS),e,124.5510,51.0292,30.6571,2024,0.0000108,0.99657443,0.0000,05/18.4646/2017,2000,g  8.0,4.0
# From MPC 96280
P/2015 T3 (PANSTARRS),e,13.0937,120.5019,178.6330,4.326181,0.1095335,0.50818108,359.9227,12/21.0/2014,2000,g 14.0,4.0
# From MPC102953
C/2015 T4 (PANSTARRS),e,87.9917,251.8245,270.0697,79.78901,0.0013829,0.97118178,0.0000,06/16.9006/2016,2000,g 11.0,4.0
# From MPC102097
C/2015 T5 (Sheppard-Tholen),e,11.0503,311.0707,61.8463,28.15955,0.0065958,0.66857105,11.8354,12/22.0/2020,2000,g  7.5,4.0
# From MPC102953
P/2015 TO19 (Lemmon-PANSTARRS),e,6.4995,321.6510,89.1351,4.556252,0.1013427,0.35806720,177.6315,12/22.0/2020,2000,g 14.0,4.0
# From MPC110080
P/2015 TP200 (LINEAR),e,8.7767,6.9951,82.6268,7.276184,0.0502167,0.53493994,76.1733,12/22.0/2020,2000,g 11.0,4.0
# From MPC101097
C/2015 TQ209 (LINEAR),e,11.3030,223.3594,282.1610,589.1154,0.0000689,0.99759599,0.0000,08/25.4422/2016,2000,g 10.5,4.0
# From MPC115881
C/2015 V1 (PANSTARRS),e,139.2238,197.1863,179.6209,2456,0.0000081,0.99826169,0.0000,12/16.9134/2017,2000,g  6.5,4.0
# From MPC112390
C/2015 V2 (Johnson),h,06/11.9307/2017,49.8574,69.8938,164.9990,1.001866,1.643893,2000,5.0,4.0
# From MPC104791
C/2015 V4 (PANSTARRS),e,60.7835,179.9322,306.9847,18.47695,0.0124096,0.70444408,19.5663,12/22.0/2020,2000,g  8.5,4.0
# From MPC115881
C/2015 VL62 (Lemmon-Yeung-PANSTARRS),h,08/27.8956/2017,165.8165,95.1019,128.7877,1.001195,2.717494,2000,8.0,4.0
# From MPC102098
C/2015 WZ (PANSTARRS),e,134.6190,40.1836,66.7384,147.0152,0.0005529,0.99060864,0.0000,04/13.7575/2016,2000,g 15.0,4.0
# From MPC109142
C/2015 W1 (Gibbs),e,87.3622,114.3163,48.1715,3044,0.0000059,0.99926310,0.0000,05/13.8486/2016,2000,g 13.0,4.0
# From MPC101098
P/2015 W2 (Catalina),e,11.6070,294.2531,117.5036,7.296527,0.0500069,0.63381829,95.4840,12/22.0/2020,2000,g 13.0,4.0
# From MPC101098
P/2015 X1 (PANSTARRS),e,12.1515,161.7691,218.9416,3.631692,0.1424100,0.41900423,271.1032,12/22.0/2020,2000,g 16.0,4.0
# From MPEC 2020-AA5
C/2015 XY1 (Lemmon),h,04/27.7223/2018,148.8547,281.6214,196.2295,1.002808,7.923997,2000,5.5,4.0
# From MPC100281
C/2015 X2 (Catalina),e,72.0731,101.0989,42.3307,15.77689,0.0157279,0.87786778,28.8025,12/22.0/2020,2000,g 16.0,4.0
# From MPC 97498
P/2015 X3 (PANSTARRS),e,24.3863,77.3160,306.6541,5.009671,0.0879003,0.43879758,172.5504,12/22.0/2020,2000,g 15.0,4.0
# From MPC119995
C/2015 X5 (PANSTARRS),h,12/29.3954/2017,124.3082,122.3463,27.6557,1.001867,6.797297,2000,7.5,4.0
# From MPC115881
P/2015 X6 (PANSTARRS),e,4.5648,106.9471,329.8681,2.753308,0.2157356,0.17257121,14.2114,12/22.0/2020,2000,g 16.0,4.0
# From MPC109143
C/2015 X7 (ATLAS),e,57.5601,139.9290,348.3862,11775,0.0000008,0.99968736,0.0000,07/29.1663/2016,2000,g  9.0,4.0
# From MPC109143
C/2015 Y1 (LINEAR),e,71.1644,135.8179,24.6615,243.0373,0.0002601,0.98964622,0.0000,05/13.5383/2016,2000,g 12.0,4.0
# From MPC119995
C/2016 A1 (PANSTARRS),h,11/22.5200/2017,121.2052,128.2078,10.2380,1.001283,5.322798,2000,6.0,4.0
# From MPC100282
P/2016 A2 (Christensen),e,26.4065,291.6147,141.5110,4.751138,0.0951717,0.27069161,191.6408,12/22.0/2020,2000,g 11.5,4.0
# From MPC115881
P/2016 A3 (PANSTARRS),e,8.5101,187.2579,340.9999,7.890036,0.0444719,0.38718111,59.2721,12/22.0/2020,2000,g 10.0,4.0
# From MPC102098
P/2016 A7 (PANSTARRS),e,16.6200,221.4882,352.6256,5.031962,0.0873169,0.56516894,153.9103,12/22.0/2020,2000,g 16.0,4.0
# From MPC106345
C/2016 A8 (LINEAR),e,148.2430,111.3393,130.4199,34.31638,0.0049029,0.94494396,7.7260,12/22.0/2020,2000,g 12.0,4.0
# From MPC107048
C/2016 B1 (NEOWISE),e,50.4520,232.0052,8.6846,440.0988,0.0001068,0.99269276,0.0000,12/04.5788/2016,2000,g  9.5,4.0
# From MPC109143
P/2016 BA14 (PANSTARRS),e,18.8937,180.5296,351.8923,3.025050,0.1873291,0.66521280,326.7817,12/22.0/2020,2000,g 21.0,4.0
# From MPC110494
C/2016 C1 (PANSTARRS),h,02/18.3419/2016,56.2332,181.8174,328.7279,1.001828,8.464300,2000,5.5,4.0
# From MPC101098
C/2016 C2 (NEOWISE),e,38.0445,24.4276,214.5746,65.96631,0.0018396,0.97621513,0.0000,04/19.2078/2016,2000,g 16.0,4.0
# From MPC110494
C/2016 E1 (PANSTARRS),h,06/04.3754/2017,131.8873,233.0793,47.4774,1.006206,8.179217,2000,6.5,4.0
# From MPC 99821
C/2016 E2 (Kowalski),e,135.8883,186.9201,321.9588,140.4105,0.0005924,0.99234960,0.0000,02/07.1990/2016,2000,g 20.0,4.0
# From MPC102098
P/2016 G1 (PANSTARRS),e,10.9677,204.0490,111.2364,2.583294,0.2373796,0.21115123,338.5748,12/22.0/2020,2000,g 14.0,4.0
# From MPEC 2017-D91
P/2016 J1-A (PANSTARRS),e,14.3257,199.8158,46.9162,3.173807,0.1743144,0.22809315,285.8411,12/22.0/2020,2000,g 16.5,4.0
# From MPEC 2017-A77
P/2016 J1-B (PANSTARRS),e,14.3284,199.8206,46.8073,3.173437,0.1743449,0.22794405,285.9659,12/22.0/2020,2000,g 17.0,4.0
# From MPC101099
C/2016 J2 (Denneau),e,130.3294,186.4182,318.6550,645.7294,0.0000601,0.99764715,0.0000,04/12.4671/2016,2000,g 17.0,4.0
# From MPC102099
C/2016 KA (Catalina),e,104.6931,317.5054,63.2196,15373,0.0000005,0.99964826,0.0000,02/02.7991/2016,2000,g  8.5,4.0
# From MPC104792
C/2016 K1 (LINEAR),h,07/13.4894/2016,90.9385,325.6157,18.3103,1.000130,2.295333,2000,13.0,4.0
# From MPC119995
C/2016 M1 (PANSTARRS),e,90.9896,92.2107,209.8988,6946,0.0000017,0.99968143,0.0000,08/10.3828/2018,2000,g  5.0,4.0
# From MPC115881
C/2016 N4 (MASTER),e,72.6167,353.9956,55.9398,2676,0.0000071,0.99880483,0.0000,09/16.6081/2017,2000,g  8.5,4.0
# From MPC119995
C/2016 N6 (PANSTARRS),e,105.8409,298.9891,162.7267,1482,0.0000173,0.99820171,0.0000,07/18.0245/2018,2000,g  7.0,4.0
# From MPC102099
P/2016 P1 (PANSTARRS),e,24.4561,319.5645,270.0795,3.193990,0.1726648,0.28920729,330.6116,12/22.0/2020,2000,g 15.0,4.0
# From MPC102099
C/2016 P4 (PANSTARRS),e,29.8804,320.7266,356.2186,410.0086,0.0001187,0.98561888,0.0000,10/18.4558/2016,2000,g 10.5,4.0
# From MPC118093
C/2016 Q2 (PANSTARRS),h,05/11.7535/2021,109.3885,322.2971,84.5188,1.000149,7.081919,2000,6.0,4.0
# From MPC102955
C/2016 Q4 (Kowalski),e,7.2565,271.2890,99.4322,16.92683,0.0141527,0.58136718,14.9938,12/22.0/2020,2000,g  7.0,4.0
# From MPC119995
C/2016 R2 (PANSTARRS),e,58.2327,80.5628,33.1627,521.9500,0.0000827,0.99501406,0.0000,05/09.1549/2018,2000,g  7.0,4.0
# From MPC102099
C/2016 R3 (Borisov),e,53.0356,78.7299,118.1838,198.7052,0.0003519,0.99771957,0.0000,10/10.1705/2016,2000,g 18.0,4.0
# From MPC109144
P/2016 R4 (Gibbs),e,10.8725,168.2726,174.0212,5.331548,0.0800616,0.47622397,129.2289,12/22.0/2020,2000,g 12.5,4.0
# From MPC105543
P/2016 S1 (PANSTARRS),e,94.6706,227.5436,273.2766,8.278516,0.0413786,0.71001565,56.9764,12/22.0/2020,2000,g 12.0,4.0
# From MPC105238
C/2016 T1 (Matheny),e,129.8498,56.3181,137.4579,124.7255,0.0007076,0.98151828,0.0000,02/01.3449/2017,2000,g 14.5,4.0
# From MPC107685
C/2016 T2 (Matheny),e,81.3913,339.1750,92.2179,99.20305,0.0009975,0.98079988,0.0000,12/29.2681/2016,2000,g 14.5,4.0
# From MPC110082
C/2016 T3 (PANSTARRS),e,22.6809,271.7317,194.6420,131.5787,0.0006530,0.97987437,0.0000,09/06.4442/2017,2000,g 10.5,4.0
# From MPC103847
